{
    "links": {
        "self": "http://www.neowsapp.com/rest/v1/neo/3798984?api_key=iIulBulltgU6a56xZRHN4H3l9WmuAYTsLGpBGhQ2"
    },
    "id": "3798984",
    "neo_reference_id": "3798984",
    "name": "(2018 BO6)",
    "designation": "2018 BO6",
    "nasa_jpl_url": "http://ssd.jpl.nasa.gov/sbdb.cgi?sstr=3798984",
    "absolute_magnitude_h": 25.4,
    "estimated_diameter": {
        "kilometers": {
            "estimated_diameter_min": 0.022108281,
            "estimated_diameter_max": 0.0494356193
        },
        "meters": {
            "estimated_diameter_min": 22.1082810359,
            "estimated_diameter_max": 49.435619262
        },
        "miles": {
            "estimated_diameter_min": 0.0137374447,
            "estimated_diameter_max": 0.0307178602
        },
        "feet": {
            "estimated_diameter_min": 72.5337327539,
            "estimated_diameter_max": 162.1903570994
        }
    },
    "is_potentially_hazardous_asteroid": false,
    "close_approach_data": [
        {
            "close_approach_date": "2018-01-29",
            "close_approach_date_full": "2018-Jan-29 14:41",
            "epoch_date_close_approach": 1517236860000,
            "relative_velocity": {
                "kilometers_per_second": "13.0955443375",
                "kilometers_per_hour": "47143.9596148571",
                "miles_per_hour": "29293.4231284649"
            },
            "miss_distance": {
                "astronomical": "0.0519294146",
                "lunar": "20.2005422794",
                "kilometers": "7768529.814506902",
                "miles": "4827140.5892511676"
            },
            "orbiting_body": "Earth"
        }
    ],
    "orbital_data": {
        "orbit_id": "1",
        "orbit_determination_date": "2018-01-30 08:33:09",
        "first_observation_date": "2018-01-27",
        "last_observation_date": "2018-01-30",
        "data_arc_in_days": 3,
        "observations_used": 35,
        "orbit_uncertainty": "8",
        "minimum_orbit_intersection": ".0490104",
        "jupiter_tisserand_invariant": "3.337",
        "epoch_osculation": "2458147.5",
        "eccentricity": ".5493760365022463",
        "semi_major_axis": "2.268215899400286",
        "inclination": "19.01551699353868",
        "ascending_node_longitude": "128.6102758688094",
        "orbital_period": "1247.742627443685",
        "perihelion_distance": "1.022112438656379",
        "perihelion_argument": "15.8848537475138",
        "aphelion_distance": "3.514319360144193",
        "perihelion_time": "2458160.041729662450",
        "mean_anomaly": "356.3814471196418",
        "mean_motion": ".2885210395813362",
        "equinox": "J2000",
        "orbit_class": {
            "orbit_class_type": "AMO",
            "orbit_class_description": "Near-Earth asteroid orbits similar to that of 1221 Amor",
            "orbit_class_range": "1.017 AU < q (perihelion) < 1.3 AU"
        }
    },
    "is_sentry_object": false
}